QIANFAN-73              
1 63159U 25046A   25200.62334147  .00000112  00000+0  15489-3 0  9993
2 63159  88.9847 335.0726 0015186 178.9883 181.1302 13.50955479 27688
QIANFAN-74              
1 63160U 25046B   25200.60699836  .00000076  00000+0  99092-4 0  9994
2 63160  88.9847 334.9628 0002025  97.7187 262.4194 13.50959581 27749
QIANFAN-75              
1 63161U 25046C   25200.52054208  .00000103  00000+0  14082-3 0  9990
2 63161  88.9848 335.2032 0016238 182.7141 177.3925 13.50956284 27608
QIANFAN-76              
1 63162U 25046D   25200.51621627  .00000111  00000+0  15279-3 0  9993
2 63162  88.9848 335.1849 0013802 182.1212 177.9883 13.50951637 27618
QIANFAN-77              
1 63163U 25046E   25200.61176865  .00000230  00000+0  15787-3 0  9990
2 63163  88.9846 334.3793 0015336 168.6825 191.4699 13.95996728 28064
QIANFAN-78              
1 63164U 25046F   25200.63159850  .00000135  00000+0  19020-3 0  9996
2 63164  88.9847 335.0387 0015097 184.8684 175.2323 13.50955244 27703
QIANFAN-79              
1 63165U 25046G   25200.58627462  .00000135  00000+0  18986-3 0  9990
2 63165  88.9851 335.1451 0014830 183.1699 176.9360 13.50957281 27649
QIANFAN-80              
1 63166U 25046H   25200.60285257  .00000100  00000+0  13679-3 0  9992
2 63166  88.9848 334.8544 0013685 186.8686 173.2280 13.50957908 27803
